[{"OBJECT_NAME":"GONETS-M 4","OBJECT_ID":"2012-041D","EPOCH":"2026-03-09T22:27:08.852832","MEAN_MOTION":12.43901069,"ECCENTRICITY":0.00238137,"INCLINATION":82.4792,"RA_OF_ASC_NODE":132.8361,"ARG_OF_PERICENTER":269.0757,"MEAN_ANOMALY":90.7595,"EPHEMERIS_TYPE":0,"CLASSIFICATION_TYPE":"U","NORAD_CAT_ID":38736,"ELEMENT_SET_NO":999,"REV_AT_EPOCH":61061,"BSTAR":0.00043144469,"MEAN_MOTION_DOT":7.0e-7,"MEAN_MOTION_DDOT":0},{"OBJECT_NAME":"SL-14 R\/B","OBJECT_ID":"1998-036G","EPOCH":"2026-03-09T14:46:32.712096","MEAN_MOTION":12.1469693,"ECCENTRICITY":0.0343401,"INCLINATION":82.5893,"RA_OF_ASC_NODE":122.8614,"ARG_OF_PERICENTER":340.1679,"MEAN_ANOMALY":135.0315,"EPHEMERIS_TYPE":0,"CLASSIFICATION_TYPE":"U","NORAD_CAT_ID":25369,"ELEMENT_SET_NO":999,"REV_AT_EPOCH":22947,"BSTAR":0.00012471,"MEAN_MOTION_DOT":2.2e-7,"MEAN_MOTION_DDOT":0}]
